EUTELSAT 7 WEST A       
1 37816U 11051A   17345.79605062 -.00000066  00000-0  00000-0 0  9991
2 37816   0.0588 356.6274 0005643 232.8853 130.4433  1.00271466 22728
